SL-16 R/B               
1 25400U 98043G   26039.82421925  .00000095  00000+0  58782-4 0  9995
2 25400  98.8206 352.9921 0010905  97.4076 262.8343 14.26042790434874
SL-16 R/B               
1 25407U 98045B   26039.89612837 -.00000001  00000+0  23527-4 0  9992
2 25407  71.0082 242.1259 0005375  61.7610 298.4056 14.16185171423024
ISS (ZARYA)             
1 25544U 98067A   26039.85811588  .00009323  00000+0  18006-3 0  9998
2 25544  51.6313 214.8819 0011069  77.9921 282.2307 15.48490499551868
CZ-4B R/B               
1 25732U 99025C   26039.75021844  .00000058  00000+0  48726-4 0  9998
2 25732  98.6684  84.7095 0038092  68.9101  41.6289 14.18259415384063
OKEAN-O                 
1 25860U 99039A   26039.72152365  .00000836  00000+0  11669-3 0  9994
2 25860  97.9508  99.8982 0001866  86.4198 273.7227 14.80287479430101
SL-16 R/B               
1 25861U 99039B   26039.72877286  .00000678  00000+0  92813-4 0  9996
2 25861  98.0030  98.8589 0014630 356.9027   3.2093 14.81689952432578
DELTA 2 R/B             
1 25876U 99041E   26039.48716296  .00002263  00000+0  40154-3 0  9993
2 25876  51.7650  57.8962 0502305 262.1571  92.2080 14.11719355358903
HELIOS 1B               
1 25977U 99064A   26039.72403614  .00002223  00000+0  25119-3 0  9994
2 25977  98.1721 301.1125 0002062 116.2568 243.8859 14.87576868680959
TERRA                   
1 25994U 99068A   26039.88886123  .00000492  00000+0  10933-3 0  9998
2 25994  97.9655  94.4148 0000928 271.1540 185.5296 14.60982763390870
SL-16 R/B               
1 26070U 00006B   26039.69208057 -.00000093  00000+0 -23106-4 0  9997
2 26070  71.0030 158.8077 0018385 231.1152 128.8332 14.15820675344450
TITAN 4B R/B            
1 26474U 00047B   26039.80546896  .00003688  00000+0  23537-3 0  9997
2 26474  67.9891 121.7170 0037063  70.8550 289.6606 15.09320643388557
ENVISAT                 
1 27386U 02009A   26039.89621638  .00000167  00000+0  68009-4 0  9990
2 27386  98.3680 354.1883 0001300  90.5757 334.1556 14.39025979255032
