CCSDS_OMM_VERS = 2.0
CREATION_DATE  = 
ORIGINATOR     = 

OBJECT_NAME    = SL-16 R/B
OBJECT_ID      = 1998-043G
CENTER_NAME    = EARTH
REF_FRAME      = TEME
TIME_SYSTEM    = UTC
MEAN_ELEMENT_THEORY = SGP/SGP4

EPOCH          = 2026-02-08T19:46:52.543200
MEAN_MOTION    = 14.26042790
ECCENTRICITY   = .00109052
INCLINATION    = 98.8206
RA_OF_ASC_NODE = 352.9921
ARG_OF_PERICENTER = 97.4076
MEAN_ANOMALY   = 262.8343

EPHEMERIS_TYPE = 0
CLASSIFICATION_TYPE = U
NORAD_CAT_ID   = 25400
ELEMENT_SET_NO = 999
REV_AT_EPOCH   = 43487
BSTAR          = .58782079E-4
MEAN_MOTION_DOT = .95E-6
MEAN_MOTION_DDOT = 0

CCSDS_OMM_VERS = 2.0
CREATION_DATE  = 
ORIGINATOR     = 

OBJECT_NAME    = SL-16 R/B
OBJECT_ID      = 1998-045B
CENTER_NAME    = EARTH
REF_FRAME      = TEME
TIME_SYSTEM    = UTC
MEAN_ELEMENT_THEORY = SGP/SGP4

EPOCH          = 2026-02-08T21:30:25.491168
MEAN_MOTION    = 14.16185171
ECCENTRICITY   = .0005375
INCLINATION    = 71.0082
RA_OF_ASC_NODE = 242.1259
ARG_OF_PERICENTER = 61.7610
MEAN_ANOMALY   = 298.4056

EPHEMERIS_TYPE = 0
CLASSIFICATION_TYPE = U
NORAD_CAT_ID   = 25407
ELEMENT_SET_NO = 999
REV_AT_EPOCH   = 42302
BSTAR          = .23527417E-4
MEAN_MOTION_DOT = -.1E-7
MEAN_MOTION_DDOT = 0

CCSDS_OMM_VERS = 2.0
CREATION_DATE  = 
ORIGINATOR     = 

OBJECT_NAME    = ISS (ZARYA)
OBJECT_ID      = 1998-067A
CENTER_NAME    = EARTH
REF_FRAME      = TEME
TIME_SYSTEM    = UTC
MEAN_ELEMENT_THEORY = SGP/SGP4

EPOCH          = 2026-02-08T20:35:41.212032
MEAN_MOTION    = 15.48490499
ECCENTRICITY   = .00110692
INCLINATION    = 51.6313
RA_OF_ASC_NODE = 214.8819
ARG_OF_PERICENTER = 77.9921
MEAN_ANOMALY   = 282.2307

EPHEMERIS_TYPE = 0
CLASSIFICATION_TYPE = U
NORAD_CAT_ID   = 25544
ELEMENT_SET_NO = 999
REV_AT_EPOCH   = 55186
BSTAR          = .18005995E-3
MEAN_MOTION_DOT = .9323E-4
MEAN_MOTION_DDOT = 0

CCSDS_OMM_VERS = 2.0
CREATION_DATE  = 
ORIGINATOR     = 

OBJECT_NAME    = CZ-4B R/B
OBJECT_ID      = 1999-025C
CENTER_NAME    = EARTH
REF_FRAME      = TEME
TIME_SYSTEM    = UTC
MEAN_ELEMENT_THEORY = SGP/SGP4

EPOCH          = 2026-02-08T18:00:18.873216
MEAN_MOTION    = 14.18259415
ECCENTRICITY   = .00380923
INCLINATION    = 98.6684
RA_OF_ASC_NODE = 84.7095
ARG_OF_PERICENTER = 68.9101
MEAN_ANOMALY   = 41.6289

EPHEMERIS_TYPE = 0
CLASSIFICATION_TYPE = U
NORAD_CAT_ID   = 25732
ELEMENT_SET_NO = 999
REV_AT_EPOCH   = 38406
BSTAR          = .4872629E-4
MEAN_MOTION_DOT = .58E-6
MEAN_MOTION_DDOT = 0

CCSDS_OMM_VERS = 2.0
CREATION_DATE  = 
ORIGINATOR     = 

OBJECT_NAME    = OKEAN-O
OBJECT_ID      = 1999-039A
CENTER_NAME    = EARTH
REF_FRAME      = TEME
TIME_SYSTEM    = UTC
MEAN_ELEMENT_THEORY = SGP/SGP4

EPOCH          = 2026-02-08T17:18:59.643360
MEAN_MOTION    = 14.80287479
ECCENTRICITY   = .00018667
INCLINATION    = 97.9508
RA_OF_ASC_NODE = 99.8982
ARG_OF_PERICENTER = 86.4198
MEAN_ANOMALY   = 273.7227

EPHEMERIS_TYPE = 0
CLASSIFICATION_TYPE = U
NORAD_CAT_ID   = 25860
ELEMENT_SET_NO = 999
REV_AT_EPOCH   = 43010
BSTAR          = .11668992E-3
MEAN_MOTION_DOT = .836E-5
MEAN_MOTION_DDOT = 0

CCSDS_OMM_VERS = 2.0
CREATION_DATE  = 
ORIGINATOR     = 

OBJECT_NAME    = SL-16 R/B
OBJECT_ID      = 1999-039B
CENTER_NAME    = EARTH
REF_FRAME      = TEME
TIME_SYSTEM    = UTC
MEAN_ELEMENT_THEORY = SGP/SGP4

EPOCH          = 2026-02-08T17:29:25.975104
MEAN_MOTION    = 14.81689952
ECCENTRICITY   = .00146303
INCLINATION    = 98.0030
RA_OF_ASC_NODE = 98.8589
ARG_OF_PERICENTER = 356.9027
MEAN_ANOMALY   = 3.2093

EPHEMERIS_TYPE = 0
CLASSIFICATION_TYPE = U
NORAD_CAT_ID   = 25861
ELEMENT_SET_NO = 999
REV_AT_EPOCH   = 43257
BSTAR          = .92812601E-4
MEAN_MOTION_DOT = .678E-5
MEAN_MOTION_DDOT = 0

CCSDS_OMM_VERS = 2.0
CREATION_DATE  = 
ORIGINATOR     = 

OBJECT_NAME    = DELTA 2 R/B
OBJECT_ID      = 1999-041E
CENTER_NAME    = EARTH
REF_FRAME      = TEME
TIME_SYSTEM    = UTC
MEAN_ELEMENT_THEORY = SGP/SGP4

EPOCH          = 2026-02-08T11:41:30.879744
MEAN_MOTION    = 14.11719355
ECCENTRICITY   = .05023053
INCLINATION    = 51.7650
RA_OF_ASC_NODE = 57.8962
ARG_OF_PERICENTER = 262.1571
MEAN_ANOMALY   = 92.2080

EPHEMERIS_TYPE = 0
CLASSIFICATION_TYPE = U
NORAD_CAT_ID   = 25876
ELEMENT_SET_NO = 999
REV_AT_EPOCH   = 35890
BSTAR          = .4015414E-3
MEAN_MOTION_DOT = .2263E-4
MEAN_MOTION_DDOT = 0

CCSDS_OMM_VERS = 2.0
CREATION_DATE  = 
ORIGINATOR     = 

OBJECT_NAME    = HELIOS 1B
OBJECT_ID      = 1999-064A
CENTER_NAME    = EARTH
REF_FRAME      = TEME
TIME_SYSTEM    = UTC
MEAN_ELEMENT_THEORY = SGP/SGP4

EPOCH          = 2026-02-08T17:22:36.722496
MEAN_MOTION    = 14.87576868
ECCENTRICITY   = .00020627
INCLINATION    = 98.1721
RA_OF_ASC_NODE = 301.1125
ARG_OF_PERICENTER = 116.2568
MEAN_ANOMALY   = 243.8859

EPHEMERIS_TYPE = 0
CLASSIFICATION_TYPE = U
NORAD_CAT_ID   = 25977
ELEMENT_SET_NO = 999
REV_AT_EPOCH   = 68095
BSTAR          = .25118954E-3
MEAN_MOTION_DOT = .2223E-4
MEAN_MOTION_DDOT = 0

CCSDS_OMM_VERS = 2.0
CREATION_DATE  = 
ORIGINATOR     = 

OBJECT_NAME    = TERRA
OBJECT_ID      = 1999-068A
CENTER_NAME    = EARTH
REF_FRAME      = TEME
TIME_SYSTEM    = UTC
MEAN_ELEMENT_THEORY = SGP/SGP4

EPOCH          = 2026-02-08T21:19:57.610272
MEAN_MOTION    = 14.60982763
ECCENTRICITY   = .00009288
INCLINATION    = 97.9655
RA_OF_ASC_NODE = 94.4148
ARG_OF_PERICENTER = 271.1540
MEAN_ANOMALY   = 185.5296

EPHEMERIS_TYPE = 0
CLASSIFICATION_TYPE = U
NORAD_CAT_ID   = 25994
ELEMENT_SET_NO = 999
REV_AT_EPOCH   = 39087
BSTAR          = .1093316E-3
MEAN_MOTION_DOT = .492E-5
MEAN_MOTION_DDOT = 0

CCSDS_OMM_VERS = 2.0
CREATION_DATE  = 
ORIGINATOR     = 

OBJECT_NAME    = SL-16 R/B
OBJECT_ID      = 2000-006B
CENTER_NAME    = EARTH
REF_FRAME      = TEME
TIME_SYSTEM    = UTC
MEAN_ELEMENT_THEORY = SGP/SGP4

EPOCH          = 2026-02-08T16:36:35.761248
MEAN_MOTION    = 14.15820675
ECCENTRICITY   = .00183852
INCLINATION    = 71.0030
RA_OF_ASC_NODE = 158.8077
ARG_OF_PERICENTER = 231.1152
MEAN_ANOMALY   = 128.8332

EPHEMERIS_TYPE = 0
CLASSIFICATION_TYPE = U
NORAD_CAT_ID   = 26070
ELEMENT_SET_NO = 999
REV_AT_EPOCH   = 34445
BSTAR          = -.23106187E-4
MEAN_MOTION_DOT = -.93E-6
MEAN_MOTION_DDOT = 0

CCSDS_OMM_VERS = 2.0
CREATION_DATE  = 
ORIGINATOR     = 

OBJECT_NAME    = TITAN 4B R/B
OBJECT_ID      = 2000-047B
CENTER_NAME    = EARTH
REF_FRAME      = TEME
TIME_SYSTEM    = UTC
MEAN_ELEMENT_THEORY = SGP/SGP4

EPOCH          = 2026-02-08T19:19:52.518144
MEAN_MOTION    = 15.09320643
ECCENTRICITY   = .00370638
INCLINATION    = 67.9891
RA_OF_ASC_NODE = 121.7170
ARG_OF_PERICENTER = 70.8550
MEAN_ANOMALY   = 289.6606

EPHEMERIS_TYPE = 0
CLASSIFICATION_TYPE = U
NORAD_CAT_ID   = 26474
ELEMENT_SET_NO = 999
REV_AT_EPOCH   = 38855
BSTAR          = .23537042E-3
MEAN_MOTION_DOT = .3688E-4
MEAN_MOTION_DDOT = 0

CCSDS_OMM_VERS = 2.0
CREATION_DATE  = 
ORIGINATOR     = 

OBJECT_NAME    = ENVISAT
OBJECT_ID      = 2002-009A
CENTER_NAME    = EARTH
REF_FRAME      = TEME
TIME_SYSTEM    = UTC
MEAN_ELEMENT_THEORY = SGP/SGP4

EPOCH          = 2026-02-08T21:30:33.095232
MEAN_MOTION    = 14.39025979
ECCENTRICITY   = .00013005
INCLINATION    = 98.3680
RA_OF_ASC_NODE = 354.1883
ARG_OF_PERICENTER = 90.5757
MEAN_ANOMALY   = 334.1556

EPHEMERIS_TYPE = 0
CLASSIFICATION_TYPE = U
NORAD_CAT_ID   = 27386
ELEMENT_SET_NO = 999
REV_AT_EPOCH   = 25503
BSTAR          = .68008648E-4
MEAN_MOTION_DOT = .167E-5
MEAN_MOTION_DDOT = 0

